county,city,zip_code,longitude,latitude,county_id,city_id
Adams,Benge,99105,-118.10261,46.90905,1,1
Adams,Hatton,99344,-119.1742,46.82616,1,2
Adams,Lind,99341,-118.61566,46.97135,1,3
Adams,Othello,99344,-119.1742,46.82616,1,4
Adams,Ritzville,99169,-118.37977,47.1274,1,5
Adams,Washtucna,99371,-118.311,46.75578,1,6
Asotin,Asotin,99402,-117.04784,46.34056,2,7
Asotin,Clarkston,99403,-117.04556,46.41402,2,8
Benton,Benton City,99320,-119.48756,46.26543,3,9
Benton,Grandview,98930,-119.90123,46.25606,3,10
Benton,Kennewick,99336,-119.11698,46.20837,3,11
Benton,Kennewick,99337,-119.14432,46.18741,3,12
Benton,Kennewick,99338,-119.3118,46.20664,3,13
Benton,Paterson,99345,-119.60311,45.93967,3,14
Benton,Plymouth,99346,-119.35107,45.93559,3,15
Benton,Pros,99350,-119.76904,46.20663,3,16
Benton,Prosser,99350,-119.76904,46.20663,3,17
Benton,Rich,99352,-119.27372,46.27391,3,18
Benton,Richland,99338,-119.3118,46.20664,3,19
Benton,Richland,99352,-119.27372,46.27391,3,20
Benton,Richland,99354,-119.26844,46.31484,3,21
Benton,West Richland,99320,-119.48756,46.26543,3,22
Benton,West Richland,99353,-119.33836,46.29696,3,23
Benton,Wrch,99353,-119.33836,46.29696,3,24
Chelan,Cashmere,98815,-120.47005,47.5224,4,25
Chelan,Chelan,98816,-120.01454,47.83985,4,26
Chelan,Chelan Falls,98817,-119.98523,47.8029,4,27
Chelan,Dryden,98821,-120.55978,47.54128,4,28
Chelan,Entiat,98822,-120.20831,47.67562,4,29
Chelan,Holden Village,98816,-120.01454,47.83985,4,30
Chelan,Leavenworth,98826,-120.65754,47.5982,4,31
Chelan,Leavenworth,98847,-120.60364,47.56805,4,32
Chelan,Malaga,98828,-120.20227,47.37238,4,33
Chelan,Manson,98831,-120.16034,47.8854,4,34
Chelan,Monitor,98836,-120.42429,47.49049,4,35
Chelan,Peshastin,98847,-120.60364,47.56805,4,36
Chelan,Wenatchee,98801,-120.30521,47.41493,4,37
Clallam,Beaver,98305,-124.33152,48.05431,5,38
Clallam,Clallam Bay,98326,-124.26015,48.25371,5,39
Clallam,Forks,98331,-124.38543,47.95014,5,40
Clallam,La Push,98331,-124.38543,47.95014,5,41
Clallam,Neah Bay,98357,-124.62735,48.36778,5,42
Clallam,Port Angeles,98362,-123.43112,48.11892,5,43
Clallam,Port Angeles,98363,-123.46101,48.11893,5,44
Clallam,Sekiu,98381,-124.30041,48.25978,5,45
Clallam,Sequim,98382,-123.10367,48.07965,5,46
Clark,Amboy,98601,-122.42148,45.91958,6,47
Clark,Battle Ground,98604,-122.5331,45.78092,6,48
Clark,Brush Prairie,98606,-122.54578,45.73473,6,49
Clark,Camas,98607,-122.40199,45.58694,6,50
Clark,La Center,98629,-122.67248,45.86156,6,51
Clark,Ridgefield,98642,-122.74595,45.81539,6,52
Clark,Vancouver,98660,-122.67156,45.63248,6,53
Clark,Vancouver,98661,-122.62934,45.63201,6,54
Clark,Vancouver,98662,-122.57722,45.64251,6,55
Clark,Vancouver,98663,-122.64695,45.65675,6,56
Clark,Vancouver,98664,-122.59219,45.62158,6,57
Clark,Vancouver,98665,-122.64443,45.67871,6,58
Clark,Vancouver,98668,-122.62446,45.64087,6,59
Clark,Vancouver,98682,-122.55149,45.69345,6,60
Clark,Vancouver,98683,-122.49212,45.60365,6,61
Clark,Vancouver,98684,-122.48723,45.63701,6,62
Clark,Vancouver,98685,-122.70303,45.70954,6,63
Clark,Vancouver,98686,-122.62731,45.71668,6,64
Clark,Washougal,98671,-122.35341,45.57923,6,65
Clark,Woodland,98674,-122.74017,45.9094,6,66
Clark,Yacolt,98675,-122.40908,45.86679,6,67
Columbia,Dayton,99328,-117.97577,46.32189,7,68
Cowlitz,Amboy,98601,-122.42148,45.91958,8,69
Cowlitz,Ariel,98603,-122.53658,45.98974,8,70
Cowlitz,Castle Rock,98611,-122.90724,46.27509,8,71
Cowlitz,Cougar,98616,-122.30857,46.04647,8,72
Cowlitz,Kalama,98625,-122.84226,46.00813,8,73
Cowlitz,Kelso,98626,-122.89867,46.14424,8,74
Cowlitz,Longview,98632,-122.95058,46.14681,8,75
Cowlitz,Ryderwood,98581,-123.04373,46.37331,8,76
Cowlitz,Silver Lake,98645,-122.8112,46.29694,8,77
Cowlitz,Silverlake,98645,-122.8112,46.29694,8,78
Cowlitz,Toutle,98649,-122.73237,46.32447,8,79
Cowlitz,Woodland,98674,-122.74017,45.9094,8,80
Douglas,Bridgeport,98813,-119.67013,48.00744,9,81
Douglas,Bridgeport Bar,98812,-119.78093,48.09967,9,82
Douglas,Coulee City,99115,-119.28816,47.61233,9,83
Douglas,Coulee Dam,99116,-118.97669,47.9708,9,84
Douglas,East Wenatchee,98802,-120.29473,47.41515,9,85
Douglas,Grand Coulee,99133,-119.00041,47.94283,9,86
Douglas,Mansfield,98812,-119.78093,48.09967,9,87
Douglas,Mansfield,98830,-119.63759,47.8118,9,88
Douglas,Orondo,98843,-120.22795,47.62353,9,89
Douglas,Palisades,98845,-119.9176,47.41492,9,90
Douglas,Quincy,98848,-119.85338,47.23748,9,91
Douglas,Rock Island,98850,-120.14545,47.37163,9,92
Douglas,Waterville,98858,-120.07145,47.64963,9,93
Ferry,Curlew,99118,-118.60061,48.88101,10,94
Ferry,Danville,99121,-118.50797,48.99237,10,95
Ferry,Inchelium,99138,-118.19657,48.29812,10,96
Ferry,Kettle Falls,99141,-118.06211,48.61053,10,97
Ferry,Malo,99150,-118.59849,48.81747,10,98
Ferry,Orient,99160,-118.20874,48.8683,10,99
Ferry,Republic,99166,-118.73748,48.64426,10,100
Franklin,Connell,99326,-118.8603,46.66146,11,101
Franklin,Eltopia,99330,-119.01647,46.45698,11,102
Franklin,Mesa,99343,-119.00503,46.57833,11,103
Franklin,Othello,99344,-119.1742,46.82616,11,104
Franklin,Pasc,99301,-119.09467,46.23542,11,105
Franklin,Pasco,99301,-119.09467,46.23542,11,106
Garfield,Pomeroy,99347,-117.58937,46.47398,12,107
Grant,Almira,99103,-118.94018,47.71094,13,108
Grant,Coulee City,99115,-119.28816,47.61233,13,109
Grant,Electric City,99123,-119.03591,47.93348,13,110
Grant,Ephrata,98823,-119.55096,47.31909,13,111
Grant,Grand Coulee,99133,-119.00041,47.94283,13,112
Grant,Hartline,99135,-119.10557,47.69015,13,113
Grant,Lakeview,98851,-119.48323,47.38898,13,114
Grant,Marlin,98832,-118.98504,47.40718,13,115
Grant,Mattawa,99349,-119.90008,46.73779,13,116
Grant,Moses Lake,98837,-119.2771,47.13196,13,117
Grant,Othello,99344,-119.1742,46.82616,13,118
Grant,Quincy,98848,-119.85338,47.23748,13,119
Grant,Royal City,99357,-119.63136,46.90248,13,120
Grant,Soap Lake,98851,-119.48323,47.38898,13,121
Grant,Stratford,98853,-119.27844,47.4263,13,122
Grant,Warden,98857,-119.04573,46.96971,13,123
Grays Harbor,Aberdeen,98520,-123.81619,46.97606,14,124
Grays Harbor,Amanda Park,98526,-123.89691,47.45917,14,125
Grays Harbor,Copalis Beach,98535,-124.16705,47.11487,14,126
Grays Harbor,Copalis Crossing,98536,-124.07463,47.11059,14,127
Grays Harbor,Cosmopolis,98537,-123.76897,46.9541,14,128
Grays Harbor,Elma,98541,-123.40382,47.00379,14,129
Grays Harbor,Grayland,98547,-124.09366,46.80933,14,130
Grays Harbor,Hoquiam,98550,-123.88689,46.97982,14,131
Grays Harbor,Mccleary,98557,-123.26405,47.04946,14,132
Grays Harbor,Moclips,98562,-124.21349,47.23932,14,133
Grays Harbor,Montesano,98563,-123.60076,46.98384,14,134
Grays Harbor,Oakville,98568,-123.23286,46.84077,14,135
Grays Harbor,Ocean Shores,98569,-124.16408,47.01156,14,136
Grays Harbor,Pacific Beach,98571,-124.20177,47.20886,14,137
Grays Harbor,Quinault,98575,-123.84618,47.46807,14,138
Grays Harbor,Taholah,98587,-124.28628,47.34257,14,139
Grays Harbor,Westport,98595,-124.10425,46.89112,14,140
Island,Camano Island,98282,-122.40049,48.23986,15,141
Island,Clinton,98236,-122.35803,47.9796,15,142
Island,Coupeville,98239,-122.68558,48.21857,15,143
Island,Coupeville,98253,-122.56817,48.08827,15,144
Island,Freeland,98249,-122.52664,48.00956,15,145
Island,Greenbank,98253,-122.56817,48.08827,15,146
Island,Langley,98249,-122.52664,48.00956,15,147
Island,Langley,98260,-122.40618,48.0399,15,148
Island,Oak Harbor,98277,-122.64682,48.29077,15,149
Island,Oak Harbor,98278,-122.67154,48.33858,15,150
Jefferson,Brinnon,98320,-122.89646,47.69838,16,151
Jefferson,Chimacum,98325,-122.77328,48.01182,16,152
Jefferson,Gardiner,98382,-123.10367,48.07965,16,153
Jefferson,Nordland,98358,-122.69107,48.05105,16,154
Jefferson,Port Hadlock,98339,-122.75878,48.03591,16,155
Jefferson,Port Ludlow,98365,-122.68475,47.92989,16,156
Jefferson,Port Townsend,98325,-122.77328,48.01182,16,157
Jefferson,Port Townsend,98368,-122.77263,48.1212,16,158
Jefferson,Quilcene,98376,-122.8775,47.82642,16,159
Jefferson,Sequim,98382,-123.10367,48.07965,16,160
King,Algona,98001,-122.23035,47.3074,17,161
King,Auburn,98001,-122.23035,47.3074,17,162
King,Auburn,98002,-122.2217,47.30661,17,163
King,Auburn,98022,-121.99136,47.20433,17,164
King,Auburn,98042,-122.09124,47.33778,17,165
King,Auburn,98092,-122.18497,47.28825,17,166
King,Baring,98224,-121.48491,47.77193,17,167
King,Beaux Arts,98004,-122.1872,47.61001,17,168
King,Bellevue,98004,-122.1872,47.61001,17,169
King,Bellevue,98005,-122.1621,47.64441,17,170
King,Bellevue,98006,-122.12096,47.55584,17,171
King,Bellevue,98007,-122.12056,47.61334,17,172
King,Bellevue,98008,-122.11867,47.63131,17,173
King,Bellevue,98027,-122.03439,47.5301,17,174
King,Bellevue,98033,-122.2066,47.67887,17,175
King,Black Diamond,98010,-122.00143,47.30893,17,176
King,Black Diamond,98042,-122.09124,47.33778,17,177
King,Black Diamond,98092,-122.18497,47.28825,17,178
King,Bothell,98011,-122.20563,47.76144,17,179
King,Bothell,98028,-122.24369,47.75892,17,180
King,Bothell,98034,-122.22901,47.72201,17,181
King,Bothell,98041,-122.19977,47.76099,17,182
King,Bothell,98072,-122.15545,47.75448,17,183
King,Burien,98146,-122.36178,47.49408,17,184
King,Burien,98148,-122.32863,47.46233,17,185
King,Burien,98166,-122.34134,47.46593,17,186
King,Burien,98168,-122.3317,47.50314,17,187
King,Carnation,98014,-121.91353,47.64901,17,188
King,Carnation,98019,-121.98609,47.74068,17,189
King,Carnation,98053,-122.03287,47.68555,17,190
King,Clyde Hill,98004,-122.1872,47.61001,17,191
King,Covington,98042,-122.09124,47.33778,17,192
King,Des Moines,98032,-122.23741,47.3807,17,193
King,Des Moines,98148,-122.32863,47.46233,17,194
King,Des Moines,98198,-122.3219,47.40173,17,195
King,Duvall,98014,-121.91353,47.64901,17,196
King,Duvall,98019,-121.98609,47.74068,17,197
King,Duvall,98072,-122.15545,47.75448,17,198
King,Enumclaw,98022,-121.99136,47.20433,17,199
King,Fall City,98024,-121.89086,47.56812,17,200
King,Federal Way,98001,-122.23035,47.3074,17,201
King,Federal Way,98003,-122.3303,47.30151,17,202
King,Federal Way,98023,-122.34059,47.32478,17,203
King,Federal Way,98422,-122.39471,47.28159,17,204
King,Gold Bar,98251,-121.69743,47.85565,17,205
King,Hunts Point,98004,-122.1872,47.61001,17,206
King,Issaquah,98006,-122.12096,47.55584,17,207
King,Issaquah,98027,-122.03439,47.5301,17,208
King,Issaquah,98029,-122.00292,47.54748,17,209
King,Issaquah,98059,-122.16335,47.53505,17,210
King,Issaquah,98075,-122.03539,47.61344,17,211
King,Kenmore,98028,-122.24369,47.75892,17,212
King,Kent,98001,-122.23035,47.3074,17,213
King,Kent,98030,-122.224,47.37943,17,214
King,Kent,98031,-122.17743,47.41185,17,215
King,Kent,98032,-122.23741,47.3807,17,216
King,Kent,98035,-122.23427,47.3805,17,217
King,Kent,98038,-122.04526,47.39394,17,218
King,Kent,98042,-122.09124,47.33778,17,219
King,Kent,98058,-122.08747,47.4466,17,220
King,Kent,98092,-122.18497,47.28825,17,221
King,Kirkland,98004,-122.1872,47.61001,17,222
King,Kirkland,98011,-122.20563,47.76144,17,223
King,Kirkland,98033,-122.2066,47.67887,17,224
King,Kirkland,98034,-122.22901,47.72201,17,225
King,Kirkland,98052,-122.13158,47.67858,17,226
King,Kirkland,98072,-122.15545,47.75448,17,227
King,Lake Forest Park,98155,-122.3175,47.75781,17,228
King,Maple Valley,98010,-122.00143,47.30893,17,229
King,Maple Valley,98027,-122.03439,47.5301,17,230
King,Maple Valley,98038,-122.04526,47.39394,17,231
King,Maple Valley,98045,-121.7831,47.49348,17,232
King,Maple Valley,98051,-121.98233,47.35298,17,233
King,Maple Valley,98058,-122.08747,47.4466,17,234
King,Maple Valley,98059,-122.16335,47.53505,17,235
King,Medina,98039,-122.23892,47.61613,17,236
King,Mercer Island,98040,-122.21238,47.57816,17,237
King,Milton,98354,-122.32172,47.24898,17,238
King,Newcastle,98006,-122.12096,47.55584,17,239
King,Newcastle,98056,-122.2044,47.52136,17,240
King,Newcastle,98059,-122.16335,47.53505,17,241
King,Normandy Park,98148,-122.32863,47.46233,17,242
King,Normandy Park,98166,-122.34134,47.46593,17,243
King,Normandy Park,98198,-122.3219,47.40173,17,244
King,North Bend,98045,-121.7831,47.49348,17,245
King,North Bend,98065,-121.82432,47.52716,17,246
King,Pacific,98001,-122.23035,47.3074,17,247
King,Pacific,98047,-122.24692,47.26465,17,248
King,Preston,98024,-121.89086,47.56812,17,249
King,Preston,98027,-122.03439,47.5301,17,250
King,Preston,98050,-121.93846,47.54369,17,251
King,Ravensdale,98038,-122.04526,47.39394,17,252
King,Ravensdale,98051,-121.98233,47.35298,17,253
King,Redmond,98014,-121.91353,47.64901,17,254
King,Redmond,98033,-122.2066,47.67887,17,255
King,Redmond,98052,-122.13158,47.67858,17,256
King,Redmond,98053,-122.03287,47.68555,17,257
King,Redmond,98072,-122.15545,47.75448,17,258
King,Redmond,98074,-122.02054,47.60326,17,259
King,Renton,98027,-122.03439,47.5301,17,260
King,Renton,98031,-122.17743,47.41185,17,261
King,Renton,98038,-122.04526,47.39394,17,262
King,Renton,98042,-122.09124,47.33778,17,263
King,Renton,98055,-122.20784,47.46004,17,264
King,Renton,98056,-122.2044,47.52136,17,265
King,Renton,98057,-122.20489,47.47532,17,266
King,Renton,98058,-122.08747,47.4466,17,267
King,Renton,98059,-122.16335,47.53505,17,268
King,Renton,98178,-122.23825,47.49461,17,269
King,Sammamish,98029,-122.00292,47.54748,17,270
King,Sammamish,98053,-122.03287,47.68555,17,271
King,Sammamish,98074,-122.02054,47.60326,17,272
King,Sammamish,98075,-122.03539,47.61344,17,273
King,Seatac,98032,-122.23741,47.3807,17,274
King,Seatac,98148,-122.32863,47.46233,17,275
King,Seatac,98158,-122.30064,47.45767,17,276
King,Seatac,98168,-122.3317,47.50314,17,277
King,Seatac,98188,-122.29179,47.43473,17,278
King,Seatac,98198,-122.3219,47.40173,17,279
King,Seattle,98055,-122.20784,47.46004,17,280
King,Seattle,98101,-122.34223,47.61085,17,281
King,Seattle,98102,-122.32427,47.63433,17,282
King,Seattle,98103,-122.35436,47.67596,17,283
King,Seattle,98104,-122.32945,47.60357,17,284
King,Seattle,98105,-122.31307,47.66127,17,285
King,Seattle,98106,-122.35163,47.54287,17,286
King,Seattle,98107,-122.38591,47.67597,17,287
King,Seattle,98108,-122.30346,47.55379,17,288
King,Seattle,98109,-122.35022,47.63824,17,289
King,Seattle,98112,-122.30207,47.64085,17,290
King,Seattle,98115,-122.31676,47.68156,17,291
King,Seattle,98116,-122.41067,47.57894,17,292
King,Seattle,98117,-122.38418,47.70044,17,293
King,Seattle,98118,-122.2668,47.55115,17,294
King,Seattle,98119,-122.3684,47.64586,17,295
King,Seattle,98121,-122.34468,47.61578,17,296
King,Seattle,98122,-122.31009,47.60803,17,297
King,Seattle,98124,-122.32851,47.58064,17,298
King,Seattle,98125,-122.30253,47.72656,17,299
King,Seattle,98126,-122.36893,47.54701,17,300
King,Seattle,98133,-122.35029,47.71871,17,301
King,Seattle,98134,-122.32741,47.58616,17,302
King,Seattle,98136,-122.38415,47.53755,17,303
King,Seattle,98144,-122.30866,47.57874,17,304
King,Seattle,98146,-122.36178,47.49408,17,305
King,Seattle,98155,-122.3175,47.75781,17,306
King,Seattle,98164,-122.3326,47.60574,17,307
King,Seattle,98166,-122.34134,47.46593,17,308
King,Seattle,98168,-122.3317,47.50314,17,309
King,Seattle,98177,-122.36498,47.72238,17,310
King,Seattle,98178,-122.23825,47.49461,17,311
King,Seattle,98188,-122.29179,47.43473,17,312
King,Seattle,98198,-122.3219,47.40173,17,313
King,Seattle,98199,-122.40092,47.65908,17,314
King,Shoreline,98020,-122.37689,47.81116,17,315
King,Shoreline,98133,-122.35029,47.71871,17,316
King,Shoreline,98155,-122.3175,47.75781,17,317
King,Shoreline,98177,-122.36498,47.72238,17,318
King,Skykomish,98224,-121.48491,47.77193,17,319
King,Skykomish,98288,-121.35912,47.71192,17,320
King,Snoqualmie,98024,-121.89086,47.56812,17,321
King,Snoqualmie,98065,-121.82432,47.52716,17,322
King,Snoqualmie Pass,98045,-121.7831,47.49348,17,323
King,Snoqualmie Pass,98068,-121.41203,47.41873,17,324
King,Tukwila,98032,-122.23741,47.3807,17,325
King,Tukwila,98108,-122.30346,47.55379,17,326
King,Tukwila,98168,-122.3317,47.50314,17,327
King,Tukwila,98178,-122.23825,47.49461,17,328
King,Tukwila,98188,-122.29179,47.43473,17,329
King,Vashon,98070,-122.4573,47.44929,17,330
King,Woodinville,98052,-122.13158,47.67858,17,331
King,Woodinville,98053,-122.03287,47.68555,17,332
King,Woodinville,98072,-122.15545,47.75448,17,333
King,Woodinville,98077,-122.07326,47.75425,17,334
King,Yarrow Point,98004,-122.1872,47.61001,17,335
Kitsap,Bainbridge Island,98110,-122.521,47.62732,18,336
Kitsap,Belfair,98528,-122.82802,47.44998,18,337
Kitsap,Bremerton,98310,-122.61273,47.57428,18,338
Kitsap,Bremerton,98311,-122.60915,47.62631,18,339
Kitsap,Bremerton,98312,-122.65223,47.57192,18,340
Kitsap,Bremerton,98314,-122.65058,47.55915,18,341
Kitsap,Bremerton,98337,-122.62749,47.565,18,342
Kitsap,Bremerton,98370,-122.64681,47.73689,18,343
Kitsap,Bremerton,98380,-122.81585,47.64509,18,344
Kitsap,Gig Harbor,98329,-122.6658,47.38336,18,345
Kitsap,Hansville,98340,-122.54758,47.91795,18,346
Kitsap,Indianola,98342,-122.51843,47.7487,18,347
Kitsap,Indianola,98370,-122.64681,47.73689,18,348
Kitsap,Keyport,98345,-122.62316,47.70251,18,349
Kitsap,Kingston,98346,-122.4977,47.79802,18,350
Kitsap,Kingston,98370,-122.64681,47.73689,18,351
Kitsap,Olalla,98359,-122.54729,47.42602,18,352
Kitsap,Port Gamble,98370,-122.64681,47.73689,18,353
Kitsap,Port Orchard,98312,-122.65223,47.57192,18,354
Kitsap,Port Orchard,98329,-122.6658,47.38336,18,355
Kitsap,Port Orchard,98366,-122.63847,47.54103,18,356
Kitsap,Port Orchard,98367,-122.70348,47.52028,18,357
Kitsap,Poulsbo,98370,-122.64681,47.73689,18,358
Kitsap,Poulsbo,98392,-122.55242,47.73162,18,359
Kitsap,Pouslbo,98370,-122.64681,47.73689,18,360
Kitsap,Seabeck,98380,-122.81585,47.64509,18,361
Kitsap,Silverdale,98311,-122.60915,47.62631,18,362
Kitsap,Silverdale,98315,-122.70835,47.68926,18,363
Kitsap,Silverdale,98383,-122.69275,47.65171,18,364
Kitsap,Suquamish,98392,-122.55242,47.73162,18,365
Kittitas,Cle Elum,98922,-120.93943,47.195,19,366
Kittitas,Easton,98925,-121.17954,47.2378,19,367
Kittitas,Ellensburg,98926,-120.54872,46.99703,19,368
Kittitas,Kittitas,98934,-120.41752,46.98472,19,369
Kittitas,Ronald,98940,-121.02627,47.23781,19,370
Kittitas,Roslyn,98940,-121.02627,47.23781,19,371
Kittitas,Roslyn,98941,-120.99607,47.22593,19,372
Kittitas,Snoqualmie Pass,98068,-121.41203,47.41873,19,373
Kittitas,South Cle Elum,98943,-120.94822,47.18891,19,374
Kittitas,Thorp,98926,-120.54872,46.99703,19,375
Kittitas,Thorp,98946,-120.66621,47.05139,19,376
Kittitas,Vantage,98950,-119.9899,46.94468,19,377
Klickitat,Alderdale,99350,-119.76904,46.20663,20,378
Klickitat,Appleton,98635,-121.28544,45.6939,20,379
Klickitat,Bickleton,99322,-120.30007,45.99783,20,380
Klickitat,Bingen,98605,-121.46623,45.71513,20,381
Klickitat,Bz Corner,98672,-121.48704,45.72776,20,382
Klickitat,Centerville,98613,-120.903,45.75198,20,383
Klickitat,Centerville,98620,-120.82545,45.823,20,384
Klickitat,Dallesport,98617,-121.14532,45.61623,20,385
Klickitat,Dallesport,98635,-121.28544,45.6939,20,386
Klickitat,Goldendale,98620,-120.82545,45.823,20,387
Klickitat,Husum,98672,-121.48704,45.72776,20,388
Klickitat,Klickitat,98628,-121.15176,45.81756,20,389
Klickitat,Klickitat,98635,-121.28544,45.6939,20,390
Klickitat,Lyle,98635,-121.28544,45.6939,20,391
Klickitat,Maryhill,98620,-120.82545,45.823,20,392
Klickitat,Murdock,98617,-121.14532,45.61623,20,393
Klickitat,Murdock,98635,-121.28544,45.6939,20,394
Klickitat,Northwestern Lake,98672,-121.48704,45.72776,20,395
Klickitat,Roosevelt,98620,-120.82545,45.823,20,396
Klickitat,Roosevelt,99356,-120.20117,45.74956,20,397
Klickitat,Snowden,98672,-121.48704,45.72776,20,398
Klickitat,Trout Lake,98650,-121.52529,45.99588,20,399
Klickitat,Wahkiacus,98670,-121.10717,45.84657,20,400
Klickitat,White Salmon,98605,-121.46623,45.71513,20,401
Klickitat,White Salmon,98635,-121.28544,45.6939,20,402
Klickitat,White Salmon,98672,-121.48704,45.72776,20,403
Klickitat,Wishram,98673,-120.96465,45.65936,20,404
Lewis,Ashford,98304,-122.03243,46.75908,21,405
Lewis,Centralia,98531,-122.95266,46.72895,21,406
Lewis,Chehalis,98531,-122.95266,46.72895,21,407
Lewis,Chehalis,98532,-122.96462,46.6621,21,408
Lewis,Chehalis,98542,-122.74909,46.53266,21,409
Lewis,Cinebar,98533,-122.49165,46.60409,21,410
Lewis,Curtis,98532,-122.96462,46.6621,21,411
Lewis,Curtis,98538,-123.13056,46.56094,21,412
Lewis,Ethel,98532,-122.96462,46.6621,21,413
Lewis,Ethel,98542,-122.74909,46.53266,21,414
Lewis,Galvin,98544,-123.02628,46.74162,21,415
Lewis,Glenoma,98336,-122.13017,46.53072,21,416
Lewis,Mineral,98355,-122.18768,46.71902,21,417
Lewis,Morton,98356,-122.27514,46.5554,21,418
Lewis,Mossyrock,98564,-122.48446,46.52948,21,419
Lewis,Napavine,98532,-122.96462,46.6621,21,420
Lewis,Napavine,98565,-122.90819,46.57624,21,421
Lewis,Onalaska,98532,-122.96462,46.6621,21,422
Lewis,Onalaska,98570,-122.69891,46.57613,21,423
Lewis,Packwood,98361,-121.66932,46.61018,21,424
Lewis,Packwood,98377,-121.95585,46.53534,21,425
Lewis,Pe Ell,98572,-123.29831,46.57001,21,426
Lewis,Randle,98377,-121.95585,46.53534,21,427
Lewis,Rochester,98579,-123.08743,46.82175,21,428
Lewis,Salkum,98582,-122.6306,46.53186,21,429
Lewis,Silver Creek,98585,-122.60209,46.52793,21,430
Lewis,Toledo,98591,-122.84784,46.44067,21,431
Lewis,Vader,98593,-122.95015,46.40201,21,432
Lewis,Winlock,98596,-122.93881,46.49114,21,433
Lincoln,Almira,99103,-118.94018,47.71094,22,434
Lincoln,Creston,99117,-118.51906,47.75865,22,435
Lincoln,Davenport,99122,-118.14913,47.65405,22,436
Lincoln,Deer Meadows,99122,-118.14913,47.65405,22,437
Lincoln,Edwall,99008,-117.95109,47.50524,22,438
Lincoln,Ford,99013,-117.80582,47.90886,22,439
Lincoln,Grand Coulee,99133,-119.00041,47.94283,22,440
Lincoln,Harrington,99134,-118.25682,47.4829,22,441
Lincoln,Lincoln,99147,-118.41899,47.82937,22,442
Lincoln,Odessa,99159,-118.68999,47.33323,22,443
Lincoln,Reardan,99029,-117.87704,47.66951,22,444
Lincoln,Seven Bays,99122,-118.14913,47.65405,22,445
Lincoln,Sprague,99032,-117.97378,47.30036,22,446
Lincoln,Wilbur,99185,-118.70912,47.75942,22,447
Mason,Allyn,98524,-122.82984,47.38173,23,448
Mason,Belfair,98528,-122.82802,47.44998,23,449
Mason,Bremerton,98312,-122.65223,47.57192,23,450
Mason,Elma,98541,-123.40382,47.00379,23,451
Mason,Grapeview,98546,-122.82364,47.32767,23,452
Mason,Hoodsport,98548,-123.14135,47.40639,23,453
Mason,Lilliwaup,98555,-123.0921,47.47203,23,454
Mason,McCleary,98557,-123.26405,47.04946,23,455
Mason,Olympia,98502,-122.92333,47.03779,23,456
Mason,Shelton,98584,-123.10565,47.21248,23,457
Mason,Tahuya,98588,-123.04061,47.37733,23,458
Mason,Union,98592,-123.09944,47.35689,23,459
Okanogan,Brewster,98812,-119.78093,48.09967,24,460
Okanogan,Carlton,98814,-120.10803,48.25448,24,461
Okanogan,Carlton,98834,-120.0051,48.12868,24,462
Okanogan,Chelan,98816,-120.01454,47.83985,24,463
Okanogan,Conconully,98819,-119.75013,48.55781,24,464
Okanogan,Coulee Dam,99116,-118.97669,47.9708,24,465
Okanogan,Elmer City,99124,-118.95334,47.99852,24,466
Okanogan,Malott,98829,-119.70617,48.28279,24,467
Okanogan,Malott,98840,-119.57959,48.3654,24,468
Okanogan,Mazama,98833,-120.40814,48.5941,24,469
Okanogan,Methow,98834,-120.0051,48.12868,24,470
Okanogan,Methow,98846,-119.89975,48.05502,24,471
Okanogan,Nespelem,99155,-118.97665,48.16636,24,472
Okanogan,Okanogan,98840,-119.57959,48.3654,24,473
Okanogan,Omak,98841,-119.52724,48.41078,24,474
Okanogan,Oroville,98844,-119.43558,48.93881,24,475
Okanogan,Pateros,98846,-119.89975,48.05502,24,476
Okanogan,Riverside,98849,-119.50853,48.50119,24,477
Okanogan,Tonasket,98855,-119.43681,48.7086,24,478
Okanogan,Twisp,98856,-120.1231,48.3652,24,479
Okanogan,Winthrop,98833,-120.40814,48.5941,24,480
Okanogan,Winthrop,98856,-120.1231,48.3652,24,481
Okanogan,Winthrop,98862,-120.17739,48.47396,24,482
Pacific,Bay Center,98527,-123.95518,46.63188,25,483
Pacific,Chinook,98614,-123.94534,46.27264,25,484
Pacific,Frances,98577,-123.72994,46.68867,25,485
Pacific,Grayland,98547,-124.09366,46.80933,25,486
Pacific,Ilwaco,98624,-124.03547,46.3088,25,487
Pacific,Lebam,98577,-123.72994,46.68867,25,488
Pacific,Long Beach,98631,-124.05439,46.35232,25,489
Pacific,Long Beach,98634,,,25,490
Pacific,Menlo,98577,-123.72994,46.68867,25,491
Pacific,Nahcotta,98640,-124.04987,46.49147,25,492
Pacific,Naselle,98638,-123.81154,46.36545,25,493
Pacific,North Cove,98547,-124.09366,46.80933,25,494
Pacific,North Cove,98590,-123.99814,46.71227,25,495
Pacific,Ocean Park,98631,-124.05439,46.35232,25,496
Pacific,Ocean Park,98640,-124.04987,46.49147,25,497
Pacific,Oysterville,98640,-124.04987,46.49147,25,498
Pacific,Oysterville,98641,-124.02697,46.54905,25,499
Pacific,Raymond,98577,-123.72994,46.68867,25,500
Pacific,Seaview,98624,-124.03547,46.3088,25,501
Pacific,Seaview,98631,-124.05439,46.35232,25,502
Pacific,Seaview,98644,-124.05475,46.3354,25,503
Pacific,Smith Creek,98577,-123.72994,46.68867,25,504
Pacific,South Bend,98577,-123.72994,46.68867,25,505
Pacific,South Bend,98586,-123.81196,46.66641,25,506
Pacific,Surfside,98640,-124.04987,46.49147,25,507
Pacific,Tokeland,98590,-123.99814,46.71227,25,508
Pacific,Willapa,98577,-123.72994,46.68867,25,509
Pend Oreille,Cusick,99119,-117.30443,48.33866,26,510
Pend Oreille,Elk,99009,-117.27816,48.01723,26,511
Pend Oreille,Ione,99139,-117.41793,48.74171,26,512
Pend Oreille,Metaline,99152,-117.38884,48.85602,26,513
Pend Oreille,Newport,99156,-117.04398,48.18285,26,514
Pend Oreille,Usk,99180,-117.28054,48.31375,26,515
Pierce,Anderson Island,98303,-122.67876,47.17794,27,516
Pierce,Artondale,98335,-122.58009,47.328,27,517
Pierce,Ashford,98304,-122.03243,46.75908,27,518
Pierce,Auburn,98092,-122.18497,47.28825,27,519
Pierce,Bonney Lake,98391,-122.17144,47.19175,27,520
Pierce,Buckley,98321,-122.02523,47.16299,27,521
Pierce,Carbonado,98323,-122.04745,47.08041,27,522
Pierce,Dupont,98327,-122.62954,47.09583,27,523
Pierce,Eatonville,98328,-122.26832,46.86733,27,524
Pierce,Edgewood,98371,-122.29521,47.19045,27,525
Pierce,Edgewood,98372,-122.28504,47.19434,27,526
Pierce,Elbe,98330,-122.19367,46.76455,27,527
Pierce,Enumclaw,98022,-121.99136,47.20433,27,528
Pierce,Fife,98424,-122.35686,47.23679,27,529
Pierce,Fircrest,98466,-122.5381,47.2326,27,530
Pierce,Fox Island,98333,-122.65107,47.27375,27,531
Pierce,Gig Harbor,98329,-122.6658,47.38336,27,532
Pierce,Gig Harbor,98332,-122.58964,47.34235,27,533
Pierce,Gig Harbor,98335,-122.58009,47.328,27,534
Pierce,Graham,98338,-122.29477,47.05703,27,535
Pierce,Joint Base Lewis Mcchord,98433,-122.60761,47.08798,27,536
Pierce,Joint Base Lewis Mcchord,98438,-122.50156,47.13872,27,537
Pierce,Kapowsin,98344,-122.26635,46.98378,27,538
Pierce,Lake Tapps,98391,-122.17144,47.19175,27,539
Pierce,Lakebay,98349,-122.75493,47.25035,27,540
Pierce,Lakewood,98439,-122.52968,47.12717,27,541
Pierce,Lakewood,98496,-122.50992,47.16826,27,542
Pierce,Lakewood,98498,-122.54764,47.17669,27,543
Pierce,Lakewood,98499,-122.51495,47.16196,27,544
Pierce,Longbranch,98351,-122.75905,47.21454,27,545
Pierce,McChord AFB,98439,-122.52968,47.12717,27,546
Pierce,Milton,98354,-122.32172,47.24898,27,547
Pierce,Orting,98360,-122.20166,47.09596,27,548
Pierce,Pacific,98047,-122.24692,47.26465,27,549
Pierce,Parkland,98444,-122.43828,47.15258,27,550
Pierce,Parkland,98446,-122.37747,47.09665,27,551
Pierce,Puyallup,98371,-122.29521,47.19045,27,552
Pierce,Puyallup,98372,-122.28504,47.19434,27,553
Pierce,Puyallup,98373,-122.2988,47.13795,27,554
Pierce,Puyallup,98374,-122.27575,47.13959,27,555
Pierce,Puyallup,98375,-122.30855,47.10424,27,556
Pierce,Roy,98580,-122.54332,47.00328,27,557
Pierce,Ruston,98407,-122.51134,47.29238,27,558
Pierce,South Hill,98373,-122.2988,47.13795,27,559
Pierce,South Hill,98374,-122.27575,47.13959,27,560
Pierce,South Hill,98375,-122.30855,47.10424,27,561
Pierce,South Prairie,98385,-122.09624,47.13954,27,562
Pierce,Spanaway,98387,-122.41046,47.06512,27,563
Pierce,Steilacoom,98388,-122.59802,47.17303,27,564
Pierce,Sumner,98390,-122.23972,47.2022,27,565
Pierce,Tacoma,98402,-122.44164,47.25517,27,566
Pierce,Tacoma,98403,-122.45782,47.26541,27,567
Pierce,Tacoma,98404,-122.41249,47.21584,27,568
Pierce,Tacoma,98405,-122.48271,47.24737,27,569
Pierce,Tacoma,98406,-122.52082,47.26887,27,570
Pierce,Tacoma,98407,-122.51134,47.29238,27,571
Pierce,Tacoma,98408,-122.44718,47.20144,27,572
Pierce,Tacoma,98409,-122.47913,47.2198,27,573
Pierce,Tacoma,98411,-122.47254,47.22077,27,574
Pierce,Tacoma,98416,-122.48107,47.26438,27,575
Pierce,Tacoma,98417,-122.48775,47.27229,27,576
Pierce,Tacoma,98418,-122.44629,47.22283,27,577
Pierce,Tacoma,98421,-122.40527,47.2556,27,578
Pierce,Tacoma,98422,-122.39471,47.28159,27,579
Pierce,Tacoma,98431,-122.55411,47.10964,27,580
Pierce,Tacoma,98433,-122.60761,47.08798,27,581
Pierce,Tacoma,98443,-122.36463,47.19449,27,582
Pierce,Tacoma,98444,-122.43828,47.15258,27,583
Pierce,Tacoma,98445,-122.40872,47.16568,27,584
Pierce,Tacoma,98446,-122.37747,47.09665,27,585
Pierce,Tacoma,98465,-122.53215,47.2499,27,586
Pierce,Tacoma,98466,-122.5381,47.2326,27,587
Pierce,Tacoma,98493,-122.5762,47.13567,27,588
Pierce,University Place,98466,-122.5381,47.2326,27,589
Pierce,University Place,98467,-122.54045,47.20742,27,590
Pierce,Vaughn,98394,-122.76355,47.34347,27,591
Pierce,Wilkeson,98396,-122.04732,47.10964,27,592
San Juan,Anacortes,98221,-122.61216,48.51749,28,593
San Juan,Deer Harbor,98243,-123.00026,48.61989,28,594
San Juan,Eastsound,98245,-122.91109,48.69389,28,595
San Juan,Friday Harbor,98250,-123.01648,48.53448,28,596
San Juan,Lopez Is,98261,-122.9143,48.52357,28,597
San Juan,Lopez Island,98261,-122.9143,48.52357,28,598
San Juan,Olga,98279,-122.8357,48.62356,28,599
San Juan,Orcas,98280,-122.94093,48.5982,28,600
San Juan,Orcas Is,98243,-123.00026,48.61989,28,601
San Juan,Orcas Is,98245,-122.91109,48.69389,28,602
San Juan,Orcas Is,98279,-122.8357,48.62356,28,603
San Juan,San Juan Is,98250,-123.01648,48.53448,28,604
San Juan,Shaw Island,98286,-122.92991,48.58348,28,605
San Juan,Waldron,98297,-123.03598,48.68843,28,606
Skagit,Anacortes,98221,-122.61216,48.51749,29,607
Skagit,Bellingham,98229,-122.45486,48.7449,29,608
Skagit,Bow,98232,-122.397,48.56045,29,609
Skagit,Burlington,98233,-122.33029,48.46846,29,610
Skagit,Clearlake,98235,-122.23452,48.46376,29,611
Skagit,Concrete,98237,-121.7515,48.53892,29,612
Skagit,Darrington,98241,-121.60421,48.25431,29,613
Skagit,Hamilton,98255,-121.98741,48.51786,29,614
Skagit,La Conner,98257,-122.49724,48.38874,29,615
Skagit,Lyman,98263,-122.05976,48.52525,29,616
Skagit,Marblemount,98267,-121.41604,48.52739,29,617
Skagit,Mount Vernon,98273,-122.33891,48.41644,29,618
Skagit,Mount Vernon,98274,-122.32355,48.41566,29,619
Skagit,Rockport,98283,-121.59274,48.48758,29,620
Skagit,Sedro Woolley,98284,-122.23857,48.50858,29,621
Skagit,Sedro-Woolley,98284,-122.23857,48.50858,29,622
Skagit,Stanwood,98292,-122.37265,48.24159,29,623
Skamania,Bingen,98605,-121.46623,45.71513,30,624
Skamania,Carson,98610,-121.82048,45.72558,30,625
Skamania,North Bonneville,98639,-121.97,45.64119,30,626
Skamania,Stevenson,98648,-121.88258,45.69417,30,627
Skamania,Underwood,98651,-121.52357,45.72902,30,628
Skamania,Washougal,98671,-122.35341,45.57923,30,629
Skamania,White Salmon,98672,-121.48704,45.72776,30,630
Snohomish,Arlington,98223,-122.1264,48.19471,31,631
Snohomish,Bothell,98011,-122.20563,47.76144,31,632
Snohomish,Bothell,98012,-122.21061,47.83448,31,633
Snohomish,Bothell,98021,-122.18384,47.8031,31,634
Snohomish,Bothell,98036,-122.29245,47.82557,31,635
Snohomish,Bothell,98072,-122.15545,47.75448,31,636
Snohomish,Brier,98036,-122.29245,47.82557,31,637
Snohomish,Darrington,98241,-121.60421,48.25431,31,638
Snohomish,Edmonds,98020,-122.37689,47.81116,31,639
Snohomish,Edmonds,98026,-122.31768,47.87166,31,640
Snohomish,Edmonds,98036,-122.29245,47.82557,31,641
Snohomish,Everett,98012,-122.21061,47.83448,31,642
Snohomish,Everett,98201,-122.20596,47.97659,31,643
Snohomish,Everett,98203,-122.23019,47.94949,31,644
Snohomish,Everett,98204,-122.27557,47.88936,31,645
Snohomish,Everett,98206,-122.31902,48.01306,31,646
Snohomish,Everett,98208,-122.18637,47.89251,31,647
Snohomish,Gold Bar,98251,-121.69743,47.85565,31,648
Snohomish,Granite Falls,98252,-121.96931,48.08157,31,649
Snohomish,Index,98256,-121.55352,47.82035,31,650
Snohomish,Index,98294,-121.81688,47.8623,31,651
Snohomish,Lake Stevens,98258,-122.06402,48.01497,31,652
Snohomish,Lynnwood,98036,-122.29245,47.82557,31,653
Snohomish,Lynnwood,98037,-122.27734,47.83785,31,654
Snohomish,Lynnwood,98087,-122.27981,47.85727,31,655
Snohomish,Martha Lake,98087,-122.27981,47.85727,31,656
Snohomish,Marysville,98270,-122.1769,48.06114,31,657
Snohomish,Marysville,98271,-122.1677,48.11026,31,658
Snohomish,Marysville,98292,-122.37265,48.24159,31,659
Snohomish,Mill Creek,98012,-122.21061,47.83448,31,660
Snohomish,Monroe,98272,-121.98087,47.8526,31,661
Snohomish,Mountlake Terrace,98043,-122.31111,47.78803,31,662
Snohomish,Mukilteo,98275,-122.29196,47.89908,31,663
Snohomish,Shoreline,98177,-122.36498,47.72238,31,664
Snohomish,Snohomish,98077,-122.07326,47.75425,31,665
Snohomish,Snohomish,98290,-122.09305,47.91265,31,666
Snohomish,Snohomish,98296,-122.1389,47.87115,31,667
Snohomish,Stanwood,98271,-122.1677,48.11026,31,668
Snohomish,Stanwood,98292,-122.37265,48.24159,31,669
Snohomish,Startup,98294,-121.81688,47.8623,31,670
Snohomish,Sultan,98294,-121.81688,47.8623,31,671
Snohomish,Tulalip,98271,-122.1677,48.11026,31,672
Snohomish,Woodinville,98072,-122.15545,47.75448,31,673
Snohomish,Woodinville,98077,-122.07326,47.75425,31,674
Snohomish,Woodway,98020,-122.37689,47.81116,31,675
Spokane,Airway Heights,99001,-117.59311,47.6443,32,676
Spokane,Chattaroy,99003,-117.35237,47.89594,32,677
Spokane,Chattaroy,99006,-117.47154,47.95431,32,678
Spokane,Chattaroy,99009,-117.27816,48.01723,32,679
Spokane,Chattaroy,99021,-117.35586,47.7628,32,680
Spokane,Cheney,99004,-117.57445,47.48928,32,681
Spokane,Cheney,99008,-117.95109,47.50524,32,682
Spokane,Cheney,99022,-117.68269,47.57261,32,683
Spokane,Cheney,99224,-117.46996,47.59431,32,684
Spokane,Colbert,99005,-117.35414,47.83743,32,685
Spokane,Colbert,99208,-117.45005,47.7333,32,686
Spokane,Deer Park,99003,-117.35237,47.89594,32,687
Spokane,Deer Park,99005,-117.35414,47.83743,32,688
Spokane,Deer Park,99006,-117.47154,47.95431,32,689
Spokane,Edwall,99004,-117.57445,47.48928,32,690
Spokane,Edwall,99008,-117.95109,47.50524,32,691
Spokane,Elk,99009,-117.27816,48.01723,32,692
Spokane,Fairchild Air Force Base,99011,-117.64458,47.64046,32,693
Spokane,Fairfield,99012,-117.17125,47.38522,32,694
Spokane,Greenacres,99016,-117.1748,47.65699,32,695
Spokane,Greenacres,99019,-117.1015,47.66829,32,696
Spokane,Greenacres,99023,-117.21611,47.56436,32,697
Spokane,Latah,99018,-117.15511,47.27966,32,698
Spokane,Liberty Lake,99016,-117.1748,47.65699,32,699
Spokane,Liberty Lake,99019,-117.1015,47.66829,32,700
Spokane,Mead,99005,-117.35414,47.83743,32,701
Spokane,Mead,99021,-117.35586,47.7628,32,702
Spokane,Medical Lake,99004,-117.57445,47.48928,32,703
Spokane,Medical Lake,99022,-117.68269,47.57261,32,704
Spokane,Medical Lake,99224,-117.46996,47.59431,32,705
Spokane,Mica,99023,-117.21611,47.56436,32,706
Spokane,Newman Lake,99025,-117.06882,47.7251,32,707
Spokane,Newman Lake,99027,-117.11195,47.70763,32,708
Spokane,Nine Mile Falls,99026,-117.54392,47.77676,32,709
Spokane,Nine Mile Falls,99224,-117.46996,47.59431,32,710
Spokane,Otis Orchards,99025,-117.06882,47.7251,32,711
Spokane,Otis Orchards,99027,-117.11195,47.70763,32,712
Spokane,Reardan,99029,-117.87704,47.66951,32,713
Spokane,Rockford,99030,-117.13265,47.45227,32,714
Spokane,Rosalia,99170,-117.37046,47.23445,32,715
Spokane,Spangle,99004,-117.57445,47.48928,32,716
Spokane,Spangle,99031,-117.38035,47.42909,32,717
Spokane,Spokane,99004,-117.57445,47.48928,32,718
Spokane,Spokane,99005,-117.35414,47.83743,32,719
Spokane,Spokane,99021,-117.35586,47.7628,32,720
Spokane,Spokane,99031,-117.38035,47.42909,32,721
Spokane,Spokane,99036,-117.23995,47.5353,32,722
Spokane,Spokane,99037,-117.19631,47.65706,32,723
Spokane,Spokane,99201,-117.41162,47.65726,32,724
Spokane,Spokane,99202,-117.3797,47.65548,32,725
Spokane,Spokane,99203,-117.39322,47.63374,32,726
Spokane,Spokane,99204,-117.42571,47.64779,32,727
Spokane,Spokane,99205,-117.45674,47.69963,32,728
Spokane,Spokane,99206,-117.24522,47.66118,32,729
Spokane,Spokane,99207,-117.3973,47.67573,32,730
Spokane,Spokane,99208,-117.45005,47.7333,32,731
Spokane,Spokane,99212,-117.288,47.6824,32,732
Spokane,Spokane,99216,-117.21264,47.65878,32,733
Spokane,Spokane,99217,-117.35298,47.70433,32,734
Spokane,Spokane,99218,-117.4118,47.7458,32,735
Spokane,Spokane,99223,-117.36043,47.63396,32,736
Spokane,Spokane,99224,-117.46996,47.59431,32,737
Spokane,Spokane,99251,-117.41643,47.75122,32,738
Spokane,Spokane Valley,99016,-117.1748,47.65699,32,739
Spokane,Spokane Valley,99027,-117.11195,47.70763,32,740
Spokane,Spokane Valley,99037,-117.19631,47.65706,32,741
Spokane,Spokane Valley,99206,-117.24522,47.66118,32,742
Spokane,Spokane Valley,99212,-117.288,47.6824,32,743
Spokane,Spokane Valley,99216,-117.21264,47.65878,32,744
Spokane,Spokane Valley,99223,-117.36043,47.63396,32,745
Spokane,Valleyford,99023,-117.21611,47.56436,32,746
Spokane,Valleyford,99030,-117.13265,47.45227,32,747
Spokane,Valleyford,99036,-117.23995,47.5353,32,748
Spokane,Valleyford,99223,-117.36043,47.63396,32,749
Spokane,Veradale,99016,-117.1748,47.65699,32,750
Spokane,Veradale,99037,-117.19631,47.65706,32,751
Stevens,Addy,99101,-117.8379,48.35609,33,752
Stevens,Chewelah,99109,-117.71555,48.28136,33,753
Stevens,Clayton,99110,-117.57228,47.99685,33,754
Stevens,Colville,99114,-117.90454,48.54657,33,755
Stevens,Deer Park,99006,-117.47154,47.95431,33,756
Stevens,Evans,99126,-118.02345,48.71331,33,757
Stevens,Ford,99013,-117.80582,47.90886,33,758
Stevens,Gifford,99131,-118.13633,48.31085,33,759
Stevens,Hunters,99137,-118.20299,48.11777,33,760
Stevens,Kettle Falls,99141,-118.06211,48.61053,33,761
Stevens,Loon Lake,99148,-117.63731,48.06288,33,762
Stevens,Nine Mile Falls,99026,-117.54392,47.77676,33,763
Stevens,Northport,99157,-117.77812,48.91739,33,764
Stevens,Rice,99167,-118.16165,48.42934,33,765
Stevens,Springdale,99173,-117.74137,48.05738,33,766
Stevens,Tumtum,99034,-117.67024,47.8927,33,767
Stevens,Valley,99181,-117.72555,48.17623,33,768
Stevens,Wellpinit,99040,-117.98701,47.88677,33,769
Thurston,Bucoda,98530,-122.8688,46.79813,34,770
Thurston,Centralia,98531,-122.95266,46.72895,34,771
Thurston,Lacey,98503,-122.82324,47.04437,34,772
Thurston,Lacey,98506,-122.87741,47.05997,34,773
Thurston,Lacey,98513,-122.81754,46.98876,34,774
Thurston,Lacey,98516,-122.75103,47.08149,34,775
Thurston,Oakville,98568,-123.23286,46.84077,34,776
Thurston,Olympia,98501,-122.89165,47.03954,34,777
Thurston,Olympia,98502,-122.92333,47.03779,34,778
Thurston,Olympia,98503,-122.82324,47.04437,34,779
Thurston,Olympia,98504,-122.89166,47.03956,34,780
Thurston,Olympia,98506,-122.87741,47.05997,34,781
Thurston,Olympia,98507,-122.89588,47.04117,34,782
Thurston,Olympia,98512,-122.90787,46.9461,34,783
Thurston,Olympia,98513,-122.81754,46.98876,34,784
Thurston,Olympia,98516,-122.75103,47.08149,34,785
Thurston,Rainier,98576,-122.68993,46.88897,34,786
Thurston,Rochester,98579,-123.08743,46.82175,34,787
Thurston,Tenino,98589,-122.85135,46.85752,34,788
Thurston,Tumwater,98501,-122.89165,47.03954,34,789
Thurston,Tumwater,98512,-122.90787,46.9461,34,790
Thurston,Yelm,98597,-122.60735,46.94239,34,791
Wahkiakum,Cathlamet,98612,-123.38663,46.20785,35,792
Wahkiakum,Grays River,98621,-123.61022,46.35588,35,793
Wahkiakum,Naselle,98638,-123.81154,46.36545,35,794
Wahkiakum,Rosburg,98643,-123.6386,46.33397,35,795
Wahkiakum,Skamokawa,98647,-123.45797,46.2716,35,796
Walla Walla,Burbank,99323,-119.01561,46.1992,36,797
Walla Walla,College Place,99324,-118.38864,46.03456,36,798
Walla Walla,Dixie,99329,-118.15568,46.14048,36,799
Walla Walla,Prescott,99348,-118.31243,46.29961,36,800
Walla Walla,Touchet,99360,-118.66923,46.04238,36,801
Walla Walla,Waitsburg,99361,-118.15448,46.27013,36,802
Walla Walla,Walla Walla,99362,-118.34261,46.07068,36,803
Walla Walla,Walla Walla Co,99362,-118.34261,46.07068,36,804
Whatcom,Acme,98220,-122.20348,48.71768,37,805
Whatcom,Bellingham,98225,-122.47091,48.75256,37,806
Whatcom,Bellingham,98226,-122.49756,48.7999,37,807
Whatcom,Bellingham,98229,-122.45486,48.7449,37,808
Whatcom,Blaine,98230,-122.74823,48.99405,37,809
Whatcom,Blaine,98231,-122.74676,48.99342,37,810
Whatcom,Custer,98240,-122.64219,48.91865,37,811
Whatcom,Deming,98244,-122.21723,48.82651,37,812
Whatcom,Everson,98247,-122.34527,48.92009,37,813
Whatcom,Ferndale,98248,-122.5945,48.84787,37,814
Whatcom,Glacier,98244,-122.21723,48.82651,37,815
Whatcom,Lummi Island,98262,-122.68326,48.72052,37,816
Whatcom,Lynden,98264,-122.45051,48.94298,37,817
Whatcom,Maple Falls,98266,-122.07728,48.92369,37,818
Whatcom,Nooksack,98276,-122.32181,48.92857,37,819
Whatcom,Point Roberts,98281,-123.05688,48.98867,37,820
Whatcom,Sedro Woolley,98284,-122.23857,48.50858,37,821
Whatcom,Sumas,98295,-122.26495,48.99976,37,822
Whitman,Colfax,99111,-117.36477,46.87965,38,823
Whitman,Colton,99113,-117.12984,46.56801,38,824
Whitman,Endicott,99125,-117.68485,46.92752,38,825
Whitman,Farmington,99128,-117.04546,47.08917,38,826
Whitman,Garfield,99130,-117.13359,47.00706,38,827
Whitman,Lacrosse,99143,-117.88137,46.81612,38,828
Whitman,Lamont,99017,-117.90629,47.20139,38,829
Whitman,Malden,99149,-117.47511,47.22875,38,830
Whitman,Oakesdale,99158,-117.24261,47.12905,38,831
Whitman,Palouse,99161,-117.0768,46.91008,38,832
Whitman,Pullman,99163,-117.18147,46.73015,38,833
Whitman,Rosalia,99170,-117.37046,47.23445,38,834
Whitman,St John,99171,-117.5821,47.09185,38,835
Whitman,Tekoa,99033,-117.07351,47.22679,38,836
Whitman,Uniontown,99113,-117.12984,46.56801,38,837
Whitman,Uniontown,99179,-117.08742,46.53906,38,838
Yakima,Buena,98921,-120.31299,46.42727,39,839
Yakima,Cowiche,98923,-120.70979,46.65456,39,840
Yakima,Grandview,98930,-119.90123,46.25606,39,841
Yakima,Granger,98932,-120.1871,46.33949,39,842
Yakima,Harrah,98933,-120.54352,46.40365,39,843
Yakima,Mabton,98930,-119.90123,46.25606,39,844
Yakima,Mabton,98935,-119.99854,46.21092,39,845
Yakima,Moxee,98901,-120.50729,46.60464,39,846
Yakima,Moxee,98936,-120.39197,46.55621,39,847
Yakima,Naches,98908,-120.60199,46.59817,39,848
Yakima,Naches,98937,-120.69972,46.7309,39,849
Yakima,Naches,98942,-120.53145,46.65405,39,850
Yakima,Outlook,98938,-120.08512,46.3294,39,851
Yakima,Parker,98939,-120.4672,46.50345,39,852
Yakima,Prosser,99350,-119.76904,46.20663,39,853
Yakima,Selah,98942,-120.53145,46.65405,39,854
Yakima,Sunnyside,98944,-120.00976,46.32379,39,855
Yakima,Tieton,98937,-120.69972,46.7309,39,856
Yakima,Tieton,98947,-120.75541,46.70257,39,857
Yakima,Toppenish,98948,-120.31298,46.37508,39,858
Yakima,Union Gap,98903,-120.47777,46.55666,39,859
Yakima,Wapato,98951,-120.42083,46.44779,39,860
Yakima,White Swan,98952,-120.73063,46.38287,39,861
Yakima,Yakima,98901,-120.50729,46.60464,39,862
Yakima,Yakima,98902,-120.51904,46.59783,39,863
Yakima,Yakima,98903,-120.47777,46.55666,39,864
Yakima,Yakima,98908,-120.60199,46.59817,39,865
Yakima,Zillah,98932,-120.1871,46.33949,39,866
Yakima,Zillah,98951,-120.42083,46.44779,39,867
Yakima,Zillah,98953,-120.26226,46.40199,39,868